OBJECT_NAME,OBJECT_ID,EPOCH,MEAN_MOTION,ECCENTRICITY,INCLINATION,RA_OF_ASC_NODE,ARG_OF_PERICENTER,MEAN_ANOMALY,EPHEMERIS_TYPE,CLASSIFICATION_TYPE,NORAD_CAT_ID,ELEMENT_SET_NO,REV_AT_EPOCH,BSTAR,MEAN_MOTION_DOT,MEAN_MOTION_DDOT
LEMUR-1,2014-033AL,2026-06-11T23:19:11.736768,14.85226096,.00497445,97.7866,312.8932,95.2951,265.3942,0,U,40044,999,64469,.236802E-3,.2021E-4,0
LEMUR-2-GREENBERG,2017-042N,2026-06-12T06:01:50.094336,15.31180547,.00089745,97.3814,343.9001,31.1061,329.0710,0,U,42837,999,48763,.5970513E-3,.17949E-3,0
LEMUR-2-ANDIS,2017-042P,2026-06-12T00:44:37.561920,15.34642942,.0008604,97.3674,343.8474,30.9613,329.2136,0,U,42838,999,48766,.57977992E-3,.19433E-3,0
LEMUR-2-MONSON,2017-042Q,2026-06-12T05:59:05.484192,15.27884488,.0006711,97.4074,343.8778,23.4664,336.6880,0,U,42839,999,48741,.5751058E-3,.15606E-3,0
LEMUR-2-FURIAUS,2017-042R,2026-06-12T05:47:52.527552,15.30094461,.00084003,97.3765,341.8569,84.1917,276.0282,0,U,42840,999,48745,.64645776E-3,.18797E-3,0
LEMUR-2-PETERG,2017-042S,2026-06-12T01:51:07.060320,15.33690573,.00036763,97.3983,348.1007,16.8591,343.2773,0,U,42841,999,48765,.59293978E-3,.19266E-3,0
LEMUR-2-DEMBITZ,2017-042T,2026-06-12T06:16:43.663872,15.30146474,.0007169,97.3818,344.8967,45.2211,314.9612,0,U,42842,999,48759,.59587555E-3,.1734E-3,0
LEMUR-2-ZACHARY,2017-042W,2026-06-12T02:09:44.470656,15.49827123,.00032735,97.3602,354.6208,52.2554,307.8994,0,U,42845,999,48841,.78095891E-3,.4359E-3,0
LEMUR-2-AMANDA-SVANTE,2021-034B,2026-06-12T04:54:53.430912,15.34002849,.00016454,97.5768,241.3599,225.9579,134.1528,0,U,48269,999,28029,.10542552E-2,.3472E-3,0
LEMUR-2-SPECIAL-K,2021-034F,2026-06-12T05:20:01.072896,15.63072892,.00037233,97.5657,249.7245,231.5746,128.5178,0,U,48273,999,28091,.1698383E-2,.157026E-2,0
LEMUR-2-EMBRIONOVIS,2023-084AQ,2026-06-12T03:00:21.943872,15.37422940,.00080443,97.6276,307.1313,340.2667,19.8265,0,U,56970,999,16690,.33243597E-3,.12128E-3,0
LEMUR-2-DEVERILL-M-T,2023-100F,2026-06-12T00:51:16.097472,15.39500186,.00068279,99.4479,200.3068,66.3960,293.7996,0,U,57391,999,16045,.6218075E-3,.24361E-3,0
LEMUR-2-BASS,2023-174D,2026-06-12T05:12:10.138464,15.42932522,.00073641,97.3850,247.8601,178.2884,181.8391,0,U,58259,999,14459,.42520719E-3,.18647E-3,0
LEMUR-2-JK0903EM1407,2023-174CJ,2026-06-12T05:48:49.859136,15.51430759,.00059068,97.3920,253.5743,133.4825,226.6919,0,U,58336,999,14496,.49362401E-3,.29085E-3,0
LEMUR-2-MJR092620,2023-174CN,2026-06-12T05:39:32.517792,15.44697436,.00070834,97.3977,253.1742,132.0767,228.1085,0,U,58340,999,14488,.45044298E-3,.20977E-3,0
LEMUR-2-NIMBUS2000,2024-022A,2026-06-12T03:21:59.542272,15.39838924,.00101652,97.4117,13.0791,131.2995,228.9127,0,U,58899,999,13149,.4600963E-3,.18228E-3,0
LEMUR-2-VALHALLA,2024-022B,2026-06-12T03:15:02.397024,15.39519746,.00107188,97.4117,13.0680,127.6268,232.5952,0,U,58900,999,13149,.38414796E-3,.15043E-3,0
LEMUR-2-OBA-NI-JESU,2024-022D,2026-06-12T03:56:04.195680,16.24065045,.00071325,97.3656,28.2035,233.9694,126.0937,0,U,58902,999,13252,.12613048E-2,.3279838E-1,.2447398E-5
LEMUR-2-CAEL,2024-022E,2026-06-12T02:01:47.485632,15.40809363,.00092579,97.4098,13.9435,112.5019,247.7208,0,U,58903,999,13155,.40163747E-3,.1641E-3,0
LEMUR-2-JOHNNYTRUONG,2024-043BA,2026-06-11T22:55:33.669984,15.60077132,.00046271,97.5365,314.3366,191.7493,168.3656,0,U,59146,999,12722,.46449853E-3,.37645E-3,0
LEMUR-2-TOMATOKECHUP,2024-149D,2026-06-12T05:18:40.660416,15.35928623,.00009636,97.3801,245.2555,186.4984,173.6248,0,U,60471,999,10140,.33292093E-3,.11567E-3,0
LEMUR-2-STELLA,2024-149BT,2026-06-12T04:24:34.492320,15.11701790,.00016046,97.6738,245.6166,98.7898,261.3514,0,U,60533,999,9974,.76969544E-3,.13055E-3,0
LEMUR-2-MARHISYAM,2024-149BW,2026-06-12T05:28:58.637280,15.11163125,.00033135,97.6888,246.1058,125.2763,234.8776,0,U,60536,999,9973,.70835624E-3,.1183E-3,0
LEMUR-2-AHMED-ASRAR,2024-149DN,2026-06-12T04:49:42.735648,15.12601063,.00021839,97.7004,248.1519,53.7277,306.4155,0,U,60576,999,9981,.72546032E-3,.12611E-3,0
LEMUR-2-LLOYD,2024-149DP,2026-06-12T04:51:11.395008,15.09145007,.00047206,97.6751,244.3288,151.2228,208.9261,0,U,60577,999,9964,.65818278E-3,.10392E-3,0
LEMUR-2-SQUIRRELCOMM,2024-149DQ,2026-06-12T05:01:45.676416,15.07098590,.00069483,97.6717,244.1365,76.2419,283.9581,0,U,60578,999,9965,.40020269E-3,.5949E-4,0
LEMUR-2-SIERRINI,2024-149DR,2026-06-12T04:25:59.622240,15.10841159,.00054304,97.6840,245.7546,181.4189,178.7026,0,U,60579,999,9970,.76084107E-3,.12602E-3,0
LEMUR-2-WILSON,2025-009CP,2026-06-12T05:01:43.663296,14.95143463,.00043162,97.7023,241.7614,67.6867,292.4811,0,U,62694,999,7661,.20082459E-3,.2147E-4,0
LEMUR-2-STAR-FOX,2025-009CR,2026-06-12T05:32:45.302496,15.02432232,.00033267,97.6956,244.8752,124.0675,236.0866,0,U,62696,999,7681,.63806352E-3,.8403E-4,0
