LEMUR-1                 
1 40044U 14033AL  26162.97166362  .00002021  00000+0  23680-3 0  9996
2 40044  97.7866 312.8932 0049744  95.2951 265.3942 14.85226096644697
LEMUR-2-GREENBERG       
1 42837U 17042N   26163.25127424  .00017949  00000+0  59705-3 0  9991
2 42837  97.3814 343.9001 0008974  31.1061 329.0710 15.31180547487633
LEMUR-2-ANDIS           
1 42838U 17042P   26163.03099030  .00019433  00000+0  57978-3 0  9999
2 42838  97.3674 343.8474 0008604  30.9613 329.2136 15.34642942487663
LEMUR-2-MONSON          
1 42839U 17042Q   26163.24936903  .00015606  00000+0  57511-3 0  9993
2 42839  97.4074 343.8778 0006711  23.4664 336.6880 15.27884488487412
LEMUR-2-FURIAUS         
1 42840U 17042R   26163.24158018  .00018797  00000+0  64646-3 0  9999
2 42840  97.3765 341.8569 0008400  84.1917 276.0282 15.30094461487453
LEMUR-2-PETERG          
1 42841U 17042S   26163.07716505  .00019266  00000+0  59294-3 0  9997
2 42841  97.3983 348.1007 0003676  16.8591 343.2773 15.33690573487656
LEMUR-2-DEMBITZ         
1 42842U 17042T   26163.26161648  .00017340  00000+0  59588-3 0  9998
2 42842  97.3818 344.8967 0007169  45.2211 314.9612 15.30146474487591
LEMUR-2-ZACHARY         
1 42845U 17042W   26163.09009804  .00043590  00000+0  78096-3 0  9998
2 42845  97.3602 354.6208 0003273  52.2554 307.8994 15.49827123488415
LEMUR-2-AMANDA-SVANTE   
1 48269U 21034B   26163.20478508  .00034720  00000+0  10543-2 0  9991
2 48269  97.5768 241.3599 0001645 225.9579 134.1528 15.34002849280292
LEMUR-2-SPECIAL-K       
1 48273U 21034F   26163.22223464  .00157026  00000+0  16984-2 0  9997
2 48273  97.5657 249.7245 0003723 231.5746 128.5178 15.63072892280916
LEMUR-2-EMBRIONOVIS     
1 56970U 23084AQ  26163.12525398  .00012128  00000+0  33244-3 0  9999
2 56970  97.6276 307.1313 0008044 340.2667  19.8265 15.37422940166908
LEMUR-2-DEVERILL-M-T    
1 57391U 23100F   26163.03560298  .00024361  00000+0  62181-3 0  9998
2 57391  99.4479 200.3068 0006827  66.3960 293.7996 15.39500186160450
LEMUR-2-BASS            
1 58259U 23174D   26163.21678401  .00018647  00000+0  42521-3 0  9995
2 58259  97.3850 247.8601 0007364 178.2884 181.8391 15.42932522144598
LEMUR-2-JK0903EM1407    
1 58336U 23174CJ  26163.24224374  .00029085  00000+0  49362-3 0  9998
2 58336  97.3920 253.5743 0005906 133.4825 226.6919 15.51430759144961
LEMUR-2-MJR092620       
1 58340U 23174CN  26163.23579303  .00020977  00000+0  45044-3 0  9991
2 58340  97.3977 253.1742 0007083 132.0767 228.1085 15.44697436144882
LEMUR-2-NIMBUS2000      
1 58899U 24022A   26163.14027248  .00018228  00000+0  46010-3 0  9999
2 58899  97.4117  13.0791 0010165 131.2995 228.9127 15.39838924131495
LEMUR-2-VALHALLA        
1 58900U 24022B   26163.13544441  .00015043  00000+0  38415-3 0  9992
2 58900  97.4117  13.0680 0010718 127.6268 232.5952 15.39519746131496
LEMUR-2-OBA-NI-JESU     
1 58902U 24022D   26163.16393745  .03279838  24474-5  12613-2 0  9991
2 58902  97.3656  28.2035 0007132 233.9694 126.0937 16.24065045132525
LEMUR-2-CAEL            
1 58903U 24022E   26163.08457738  .00016410  00000+0  40164-3 0  9994
2 58903  97.4098  13.9435 0009257 112.5019 247.7208 15.40809363131555
LEMUR-2-JOHNNYTRUONG    
1 59146U 24043BA  26162.95525081  .00037645  00000+0  46450-3 0  9996
2 59146  97.5365 314.3366 0004627 191.7493 168.3656 15.60077132127222
LEMUR-2-TOMATOKECHUP    
1 60471U 24149D   26163.22130394  .00011567  00000+0  33292-3 0  9991
2 60471  97.3801 245.2555 0000963 186.4984 173.6248 15.35928623101405
LEMUR-2-STELLA          
1 60533U 24149BT  26163.18373255  .00013055  00000+0  76970-3 0  9994
2 60533  97.6738 245.6166 0001604  98.7898 261.3514 15.11701790 99742
LEMUR-2-MARHISYAM       
1 60536U 24149BW  26163.22845645  .00011830  00000+0  70836-3 0  9993
2 60536  97.6888 246.1058 0003313 125.2763 234.8776 15.11163125 99731
LEMUR-2-AHMED-ASRAR     
1 60576U 24149DN  26163.20118907  .00012611  00000+0  72546-3 0  9997
2 60576  97.7004 248.1519 0002183  53.7277 306.4155 15.12601063 99814
LEMUR-2-LLOYD           
1 60577U 24149DP  26163.20221522  .00010392  00000+0  65818-3 0  9994
2 60577  97.6751 244.3288 0004720 151.2228 208.9261 15.09145007 99645
LEMUR-2-SQUIRRELCOMM    
1 60578U 24149DQ  26163.20955644  .00005949  00000+0  40020-3 0  9994
2 60578  97.6717 244.1365 0006948  76.2419 283.9581 15.07098590 99655
LEMUR-2-SIERRINI        
1 60579U 24149DR  26163.18471785  .00012602  00000+0  76084-3 0  9994
2 60579  97.6840 245.7546 0005430 181.4189 178.7026 15.10841159 99701
LEMUR-2-WILSON          
1 62694U 25009CP  26163.20953314  .00002147  00000+0  20082-3 0  9996
2 62694  97.7023 241.7614 0004316  67.6867 292.4811 14.95143463 76613
LEMUR-2-STAR-FOX        
1 62696U 25009CR  26163.23107989  .00008403  00000+0  63806-3 0  9992
2 62696  97.6956 244.8752 0003326 124.0675 236.0866 15.02432232 76811
